COSMOS 2550             
1 48865U 21056A   26067.47400841 -.00000192  00000+0 -13338-7 0  9992
2 48865  67.1451  44.6088 0008369 269.6014  90.4182 15.33829151263273
STARLINK-32835          
1 63051U 25034Y   26068.95368218  .00040595  00000+0  13753-2 0  9996
2 63051  53.1595 269.9389 0001166  88.4751 271.6383 15.30198308 58942
